LEMUR-2-ALISIA          
1 62706U 25009DB  26185.51308226  .00017169  00000+0  12766-2 0  9993
2 62706  97.6947 267.5646 0003260 163.9914 196.1415 15.03047224102766
LEMUR-2-ROUNDTRIPPER    
1 62711U 25009DG  26185.19310209  .00012398  00000+0  89883-3 0  9991
2 62711  97.7224 267.8497 0004694  90.6422 269.5341 15.04075178 80184
LEMUR-2-MYNAMEISJEFF    
1 62712U 25009DH  26184.99194340  .00011591  00000+0  84106-3 0  9992
2 62712  97.7272 268.0400 0003633 124.4759 235.6810 15.04062427 80151
LEMUR-2-LEIA-PHILIP     
1 63246U 25052AN  26185.64515320  .00002714  00000+0  23855-3 0  9992
2 63246  97.6813  77.3004 0004608 148.3131 211.8369 14.97368617 71287
LEMUR-2-LIA-MARTIN      
1 63248U 25052AQ  26185.64404019  .00009176  00000+0  78213-3 0  9993
2 63248  97.6859  77.8000 0004903 117.0608 243.1115 14.97957995 71291
LEMUR-2-DELOITTE-1      
1 63259U 25052BB  26185.42236868  .00005094  00000+0  43933-3 0  9992
2 63259  97.6889  77.9137 0002360  66.0394 294.1075 14.97723490 71278
LEMUR-2-EMERSONROSE     
1 63261U 25052BD  26185.44732921  .00006139  00000+0  50846-3 0  9990
2 63261  97.6866  78.5276 0002619  75.7149 284.4365 14.99215108 71323
LEMUR-2-MARACHE-FRAN    
1 63262U 25052BE  26185.14396254  .00006216  00000+0  50108-3 0  9990
2 63262  97.6881  78.5808 0004349 305.5849  54.4969 15.00250703 71301
LEMUR-2-THEFALCONER     
1 63264U 25052BG  26184.98357027  .00005402  00000+0  46822-3 0  9992
2 63264  97.6840  77.0825 0001078  27.2576 332.8702 14.97503207 71204
LEMUR-2-UNTITLED-SC     
1 63351U 25061A   26185.21188610  .00004859  00000+0  27340-3 0  9995
2 63351  97.5648 160.4510 0018039 201.2225 158.8260 15.13589963 70165
LEMUR-2-ESPERANZA       
1 63352U 25061B   26185.38630621  .00004287  00000+0  24107-3 0  9991
2 63352  97.5656 160.7216 0017672 199.5330 160.5226 15.13684830 70193
LEMUR-2-KREMPEL-BRO2    
1 63353U 25061C   26185.21005346  .00004924  00000+0  27284-3 0  9991
2 63353  97.5703 161.1018 0018810 192.8494 167.2260 15.14121203 70186
LEMUR-2-THERMORAPTOR    
1 63354U 25061D   26185.38946077  .00004284  00000+0  23737-3 0  9993
2 63354  97.5708 161.3592 0018544 190.9868 169.0962 15.14206016 70218
LEMUR-2-NEUROSPICY      
1 63355U 25061E   26185.35981803  .00004979  00000+0  27462-3 0  9997
2 63355  97.5632 160.9425 0016331 194.1645 165.9131 15.14321842 70214
LEMUR-2-TILLINFINITY    
1 63356U 25061F   26185.38846060  .00004527  00000+0  24580-3 0  9993
2 63356  97.5619 161.2736 0017915 182.1210 177.9949 15.14907778 70244
LEMUR-2-KREMPEL-BRO1    
1 63357U 25061G   26185.16595244  .00004647  00000+0  25356-3 0  9990
2 63357  97.5620 160.9635 0018501 184.4809 175.6260 15.14710926 70206
LEMUR-2-LANGER2SPACE    
1 63358U 25061H   26185.39407905  .00004646  00000+0  25586-3 0  9996
2 63358  97.5626 160.9974 0016249 192.1026 167.9818 15.14409004 70220
LEMUR-2-BALTO           
1 63395U 25052BH  26185.12860914  .00007207  00000+0  57967-3 0  9995
2 63395  97.6925  78.5432 0005958   9.8348 350.2991 15.00276530 71303
LEMUR-2-KRISH           
1 64561U 25135AK  26185.59529711  .00009848  00000+0  87398-3 0  9995
2 64561  97.7757 300.3533 0001574 105.0164 255.1231 14.96375761 56523
LEMUR-2-HUBBLE-4        
1 64565U 25135AP  26185.55669789  .00001965  00000+0  19127-3 0  9992
2 64565  97.7713 299.2584 0001708 195.0132 165.1037 14.93664991 56464
LEMUR-2-SEJONG-2        
1 64586U 25135BL  26185.61964404  .00006386  00000+0  56189-3 0  9995
2 64586  97.7716 300.5234 0002886 266.0230  94.0661 14.96854524 56553
LEMUR-2-HUBBLE-5        
1 64840U 25135BT  26185.30141940  .00001449  00000+0  14066-3 0  9999
2 64840  97.7732 299.6635 0004096 284.2668  75.8097 14.94188176 56460
LEMUR-2-KARENDARRELL    
1 64841U 25135BU  26185.25957144  .00010926  00000+0  87289-3 0  9992
2 64841  97.7700 301.4418 0011308 140.0466 220.1592 15.00374837 56572
LEMUR-2-LUCILLE-ROSE    
1 65403U 25135BV  26185.03291944  .00009314  00000+0  74466-3 0  9994
2 65403  97.7731 301.2490 0013426 223.7635 136.2526 15.00372162 51162
LEMUR-2-AFFIE-WAUWIE    
1 66295U 25248C   26185.58274728  .00044062  00000+0  15875-2 0  9997
2 66295  45.3928  20.6941 0008337 195.7546 164.3085 15.27915281 37256
LEMUR-2-DEANANDMAEVE    
1 66678U 25276N   26184.18188387  .00006959  00000+0  32677-3 0  9996
2 66678  97.4206 257.3935 0004383 311.1776  48.9081 15.19930878 32849
LEMUR-2-STAS-GORBUK     
1 66686U 25276W   26185.45139131  .00007587  00000+0  35973-3 0  9999
2 66686  97.4233 258.6954 0003585 303.5126  56.5766 15.19569765 33030
LEMUR-2-TEODOR          
1 66768U 25276DG  26185.15311270  .00007860  00000+0  35496-3 0  9997
2 66768  97.4143 258.6599 0002347  99.4343 260.7159 15.21240000 33028
LEMUR-2-LAILA           
1 66776U 25276DQ  26185.19031487  .00007468  00000+0  33520-3 0  9999
2 66776  97.4166 258.8280 0002837 111.0448 249.1092 15.21465807 33034
